OBJECT_NAME,OBJECT_ID,EPOCH,MEAN_MOTION,ECCENTRICITY,INCLINATION,RA_OF_ASC_NODE,ARG_OF_PERICENTER,MEAN_ANOMALY,EPHEMERIS_TYPE,CLASSIFICATION_TYPE,NORAD_CAT_ID,ELEMENT_SET_NO,REV_AT_EPOCH,BSTAR,MEAN_MOTION_DOT,MEAN_MOTION_DDOT
STARLINK-5785,2023-042AX,2026-07-22T18:01:50.020032,15.27574408,.0001379,43.0056,2.2764,263.8092,96.2603,0,U,56031,999,18369,-.8491632E-5,-.496E-5,0
STARLINK-5786,2023-042AY,2026-07-22T17:04:41.277504,15.27574651,.00019129,43.0046,2.8336,266.5768,93.4865,0,U,56032,999,18368,-.16274671E-4,-.71E-5,0
STARLINK-5782,2023-042BA,2026-07-22T18:49:57.054432,15.27593311,.00016049,43.0024,2.5188,264.0426,96.0243,0,U,56034,999,18369,.18189355E-3,.4748E-4,0
STARLINK-5792,2023-042BB,2026-07-22T18:24:01.752480,15.27581474,.00014492,43.0050,2.3889,270.2934,89.7752,0,U,56035,999,18369,.44349852E-4,.958E-5,0
STARLINK-5790,2023-042BC,2026-07-22T18:37:00.190560,15.27535001,.0001424,43.0041,2.4390,236.1366,123.9350,0,U,56036,999,18369,.33436509E-3,.8937E-4,0
STARLINK-5758,2023-042BD,2026-07-22T18:54:21.349440,15.27577208,.00017322,43.0056,347.7885,273.1428,86.9226,0,U,56037,999,18386,-.5470074E-5,-.413E-5,0
STARLINK-5793,2023-042BE,2026-07-22T19:01:04.681920,15.27465072,.000149,43.0033,2.5743,302.5350,57.5357,0,U,56038,999,18369,.10793317E-2,.29453E-3,0
STARLINK-5795,2023-042BF,2026-07-22T17:46:05.950560,15.27579864,.00016549,43.0039,348.2898,266.2104,93.8558,0,U,56039,999,18385,.17185771E-4,.211E-5,0
STARLINK-5798,2023-042BG,2026-07-22T19:25:48.549216,15.27576855,.00017521,43.0032,347.9386,263.3755,96.6897,0,U,56040,999,18386,.13868432E-4,.119E-5,0
STARLINK-5800,2023-042BH,2026-07-22T18:37:02.961408,15.27532396,.00014385,43.0038,351.0908,272.5328,87.5359,0,U,56041,999,18382,-.21239335E-3,-.6093E-4,0
STARLINK-6109,2023-046B,2026-07-22T20:14:10.834080,15.27576715,.0001178,43.0029,118.1027,263.9644,96.1073,0,U,56094,999,18270,.20516959E-4,.302E-5,0
STARLINK-6090,2023-046C,2026-07-22T20:03:04.271040,15.27583117,.00014774,43.0044,118.0467,262.9330,97.1354,0,U,56095,999,18270,.39313067E-4,.82E-5,0
STARLINK-6089,2023-046D,2026-07-22T10:54:47.318976,15.27578027,.00011955,43.0023,120.3455,261.9724,98.0992,0,U,56096,999,18264,.21326848E-4,.325E-5,0
STARLINK-6077,2023-046E,2026-07-22T16:48:32.500224,15.27579539,.00016853,43.0042,71.8136,274.5650,85.5009,0,U,56097,999,18322,.17809623E-4,.228E-5,0
STARLINK-6088,2023-046F,2026-07-22T18:34:27.775776,15.27581428,.00014746,43.0034,118.4460,262.0255,98.0429,0,U,56098,999,18268,.27797897E-4,.503E-5,0
STARLINK-6076,2023-046H,2026-07-22T19:55:40.083456,15.27579809,.00019985,43.0045,118.0114,258.3248,101.7379,0,U,56100,999,18270,.22841566E-4,.366E-5,0
STARLINK-6095,2023-046J,2026-07-22T20:01:13.697184,15.27577639,.00013495,43.0042,118.0308,267.4457,92.6240,0,U,56101,999,18270,.11211217E-4,.46E-6,0
STARLINK-6075,2023-046K,2026-07-22T18:49:17.040000,15.27592090,.00015303,43.0003,118.5083,235.7280,124.3427,0,U,56102,999,18269,.1822967E-3,.4759E-4,0
STARLINK-6096,2023-046L,2026-07-22T20:12:19.160352,15.27608801,.0001383,43.0029,118.0891,235.2927,124.7795,0,U,56103,999,18270,-.2699977E-3,-.7691E-4,0
STARLINK-6062,2023-046M,2026-07-22T20:06:46.250784,15.27579635,.00015477,43.0030,118.0584,262.8984,97.1692,0,U,56104,999,18270,.18530982E-4,.248E-5,0
STARLINK-6066,2023-046N,2026-07-22T19:24:27.106848,15.27595915,.00005985,42.9992,118.6863,297.5354,62.5437,0,U,56105,999,18269,.65169116E-3,.17723E-3,0
STARLINK-6030,2023-046Q,2026-07-22T19:35:31.903872,15.27572479,.00012097,43.0050,118.7453,271.6810,88.3904,0,U,56107,999,18269,.17919181E-4,.231E-5,0
STARLINK-6081,2023-046R,2026-07-22T11:02:11.364864,15.27577614,.00008303,43.0023,120.3679,253.6866,106.3895,0,U,56108,999,18264,.17661601E-4,.224E-5,0
STARLINK-6083,2023-046S,2026-07-22T19:29:58.127712,15.27579486,.00013449,43.0050,118.7192,255.1371,104.9332,0,U,56109,999,18269,-.5729347E-5,-.42E-5,0
STARLINK-6082,2023-046T,2026-07-22T19:20:43.476864,15.27578344,.00006638,43.0015,118.6637,210.1074,149.9739,0,U,56110,999,18269,.16947265E-4,.205E-5,0
STARLINK-6084,2023-046U,2026-07-22T18:18:00.812160,15.27576995,.00016414,43.0049,119.1939,259.2441,100.8226,0,U,56111,999,18268,.6883662E-5,-.73E-6,0
STARLINK-6080,2023-046V,2026-07-22T19:41:05.089920,15.27572172,.00014529,43.0049,118.7768,260.4210,99.6477,0,U,56112,999,18269,-.15004479E-4,-.675E-5,0
STARLINK-6113,2023-046W,2026-07-22T19:57:31.421088,15.27582795,.0001442,43.0041,118.0050,263.7521,96.3166,0,U,56113,999,18270,-.27109749E-4,-.1008E-4,0
STARLINK-6101,2023-046Y,2026-07-22T19:23:17.155680,15.27575728,.00013126,43.0051,115.2746,284.5944,75.4762,0,U,56115,999,18273,.8400574E-5,-.31E-6,0
STARLINK-6114,2023-046Z,2026-07-22T19:46:37.736832,15.27577472,.00017504,43.0042,118.8063,273.6372,86.4280,0,U,56116,999,18269,.11868903E-4,.64E-6,0
