{"epoch":1784799577,"count":18318,"objects":[{"id":"56031","name":"STARLINK-5785","type":"PAYLOAD","l1":"1 56031U 23042AX  26203.75127338 -.00000496  00000-0 -84916-5 0  9999","l2":"2 56031  43.0056   2.2764 0001379 263.8092  96.2603 15.27574408183692"},{"id":"56032","name":"STARLINK-5786","type":"PAYLOAD","l1":"1 56032U 23042AY  26203.71158886 -.00000710  00000-0 -16275-4 0  9999","l2":"2 56032  43.0046   2.8336 0001913 266.5768  93.4865 15.27574651183685"},{"id":"56034","name":"STARLINK-5782","type":"PAYLOAD","l1":"1 56034U 23042BA  26203.78468813  .00004748  00000-0  18189-3 0  9990","l2":"2 56034  43.0024   2.5188 0001605 264.0426  96.0243 15.27593311183691"},{"id":"56035","name":"STARLINK-5792","type":"PAYLOAD","l1":"1 56035U 23042BB  26203.76668695  .00000958  00000-0  44350-4 0  9998","l2":"2 56035  43.0050   2.3889 0001449 270.2934  89.7752 15.27581474183697"},{"id":"56036","name":"STARLINK-5790","type":"PAYLOAD","l1":"1 56036U 23042BC  26203.77569665  .00008937  00000-0  33437-3 0  9995","l2":"2 56036  43.0041   2.4390 0001424 236.1366 123.9350 15.27535001183699"},{"id":"56037","name":"STARLINK-5758","type":"PAYLOAD","l1":"1 56037U 23042BD  26203.78774710 -.00000413  00000-0 -54701-5 0  9998","l2":"2 56037  43.0056 347.7885 0001732 273.1428  86.9226 15.27577208183866"},{"id":"56038","name":"STARLINK-5793","type":"PAYLOAD","l1":"1 56038U 23042BE  26203.79241530  .00029453  00000-0  10793-2 0  9992","l2":"2 56038  43.0033   2.5743 0001490 302.5350  57.5357 15.27465072183698"},{"id":"56039","name":"STARLINK-5795","type":"PAYLOAD","l1":"1 56039U 23042BF  26203.74034665  .00000211  00000-0  17186-4 0  9993","l2":"2 56039  43.0039 348.2898 0001655 266.2104  93.8558 15.27579864183851"},{"id":"56040","name":"STARLINK-5798","type":"PAYLOAD","l1":"1 56040U 23042BG  26203.80958969  .00000119  00000-0  13868-4 0  9994","l2":"2 56040  43.0032 347.9386 0001752 263.3755  96.6897 15.27576855183867"},{"id":"56041","name":"STARLINK-5800","type":"PAYLOAD","l1":"1 56041U 23042BH  26203.77572872 -.00006093  00000-0 -21239-3 0  9995","l2":"2 56041  43.0038 351.0908 0001438 272.5328  87.5359 15.27532396183829"},{"id":"56094","name":"STARLINK-6109","type":"PAYLOAD","l1":"1 56094U 23046B   26203.84318095  .00000302  00000-0  20517-4 0  9994","l2":"2 56094  43.0029 118.1027 0001178 263.9644  96.1073 15.27576715182705"},{"id":"56095","name":"STARLINK-6090","type":"PAYLOAD","l1":"1 56095U 23046C   26203.83546610  .00000820  00000-0  39313-4 0  9999","l2":"2 56095  43.0044 118.0467 0001477 262.9330  97.1354 15.27583117182700"},{"id":"56096","name":"STARLINK-6089","type":"PAYLOAD","l1":"1 56096U 23046D   26203.45471434  .00000325  00000-0  21327-4 0  9995","l2":"2 56096  43.0023 120.3455 0001195 261.9724  98.0992 15.27578027182649"},{"id":"56097","name":"STARLINK-6077","type":"PAYLOAD","l1":"1 56097U 23046E   26203.70037616  .00000228  00000-0  17810-4 0  9998","l2":"2 56097  43.0042  71.8136 0001685 274.5650  85.5009 15.27579539183223"},{"id":"56098","name":"STARLINK-6088","type":"PAYLOAD","l1":"1 56098U 23046F   26203.77393259  .00000503  00000-0  27798-4 0  9996","l2":"2 56098  43.0034 118.4460 0001475 262.0255  98.0429 15.27581428182687"},{"id":"56100","name":"STARLINK-6076","type":"PAYLOAD","l1":"1 56100U 23046H   26203.83032504  .00000366  00000-0  22842-4 0  9992","l2":"2 56100  43.0045 118.0114 0001998 258.3248 101.7379 15.27579809182704"},{"id":"56101","name":"STARLINK-6095","type":"PAYLOAD","l1":"1 56101U 23046J   26203.83418631  .00000046  00000-0  11211-4 0  9995","l2":"2 56101  43.0042 118.0308 0001350 267.4457  92.6240 15.27577639182706"},{"id":"56102","name":"STARLINK-6075","type":"PAYLOAD","l1":"1 56102U 23046K   26203.78422500  .00004759  00000-0  18230-3 0  9992","l2":"2 56102  43.0003 118.5083 0001530 235.7280 124.3427 15.27592090182697"},{"id":"56103","name":"STARLINK-6096","type":"PAYLOAD","l1":"1 56103U 23046L   26203.84188843 -.00007691  00000-0 -27000-3 0  9994","l2":"2 56103  43.0029 118.0891 0001383 235.2927 124.7795 15.27608801182709"},{"id":"56104","name":"STARLINK-6062","type":"PAYLOAD","l1":"1 56104U 23046M   26203.83803531  .00000248  00000-0  18531-4 0  9991","l2":"2 56104  43.0030 118.0584 0001548 262.8984  97.1692 15.27579635182704"},{"id":"56105","name":"STARLINK-6066","type":"PAYLOAD","l1":"1 56105U 23046N   26203.80864707  .00017723  00000-0  65169-3 0  9995","l2":"2 56105  42.9992 118.6863 0000598 297.5354  62.5437 15.27595915182696"},{"id":"56107","name":"STARLINK-6030","type":"PAYLOAD","l1":"1 56107U 23046Q   26203.81634148  .00000231  00000-0  17919-4 0  9999","l2":"2 56107  43.0050 118.7453 0001210 271.6810  88.3904 15.27572479182698"},{"id":"56108","name":"STARLINK-6081","type":"PAYLOAD","l1":"1 56108U 23046R   26203.45985376  .00000224  00000-0  17662-4 0  9999","l2":"2 56108  43.0023 120.3679 0000830 253.6866 106.3895 15.27577614182647"},{"id":"56109","name":"STARLINK-6083","type":"PAYLOAD","l1":"1 56109U 23046S   26203.81247833 -.00000420  00000-0 -57293-5 0  9994","l2":"2 56109  43.0050 118.7192 0001345 255.1371 104.9332 15.27579486182693"},{"id":"56110","name":"STARLINK-6082","type":"PAYLOAD","l1":"1 56110U 23046T   26203.80605876  .00000205  00000-0  16947-4 0  9999","l2":"2 56110  43.0015 118.6637 0000664 210.1074 149.9739 15.27578344182695"},{"id":"56111","name":"STARLINK-6084","type":"PAYLOAD","l1":"1 56111U 23046U   26203.76250940 -.00000073  00000-0  68837-5 0  9993","l2":"2 56111  43.0049 119.1939 0001641 259.2441 100.8226 15.27576995182688"},{"id":"56112","name":"STARLINK-6080","type":"PAYLOAD","l1":"1 56112U 23046V   26203.82019780 -.00000675  00000-0 -15004-4 0  9992","l2":"2 56112  43.0049 118.7768 0001453 260.4210  99.6477 15.27572172182690"},{"id":"56113","name":"STARLINK-6113","type":"PAYLOAD","l1":"1 56113U 23046W   26203.83161367 -.00001008  00000-0 -27110-4 0  9995","l2":"2 56113  43.0041 118.0050 0001442 263.7521  96.3166 15.27582795182702"},{"id":"56115","name":"STARLINK-6101","type":"PAYLOAD","l1":"1 56115U 23046Y   26203.80783745 -.00000031  00000-0  84006-5 0  9996","l2":"2 56115  43.0051 115.2746 0001313 284.5944  75.4762 15.27575728182734"},{"id":"56116","name":"STARLINK-6114","type":"PAYLOAD","l1":"1 56116U 23046Z   26203.82404788  .00000064  00000-0  11869-4 0  9997","l2":"2 56116  43.0042 118.8063 0001750 273.6372  86.4280 15.27577472182695"}]}